[{"OBJECT_NAME":"ION SCV-010","OBJECT_ID":"2023-054Q","EPOCH":"2026-03-09T16:02:35.904768","MEAN_MOTION":15.25210322,"ECCENTRICITY":0.00127052,"INCLINATION":97.3904,"RA_OF_ASC_NODE":319.4312,"ARG_OF_PERICENTER":188.785,"MEAN_ANOMALY":171.3168,"EPHEMERIS_TYPE":0,"CLASSIFICATION_TYPE":"U","NORAD_CAT_ID":56192,"ELEMENT_SET_NO":999,"REV_AT_EPOCH":16102,"BSTAR":0.00025045068,"MEAN_MOTION_DOT":6.231e-5,"MEAN_MOTION_DDOT":0},{"OBJECT_NAME":"UMBRA-11","OBJECT_ID":"2025-276CL","EPOCH":"2026-03-09T18:06:23.760288","MEAN_MOTION":15.22304162,"ECCENTRICITY":0.00010845,"INCLINATION":97.4267,"RA_OF_ASC_NODE":144.2955,"ARG_OF_PERICENTER":341.4923,"MEAN_ANOMALY":18.6273,"EPHEMERIS_TYPE":0,"CLASSIFICATION_TYPE":"U","NORAD_CAT_ID":66748,"ELEMENT_SET_NO":999,"REV_AT_EPOCH":1534,"BSTAR":0.0010529412,"MEAN_MOTION_DOT":0.00024246,"MEAN_MOTION_DDOT":0}]
